CCSDS_OMM_VERS = 2.0
CREATION_DATE  = 
ORIGINATOR     = 

OBJECT_NAME    = STARLINK-36403
OBJECT_ID      = 2026-016C
CENTER_NAME    = EARTH
REF_FRAME      = TEME
TIME_SYSTEM    = UTC
MEAN_ELEMENT_THEORY = SGP/SGP4

EPOCH          = 2026-02-13T07:40:40.789920
MEAN_MOTION    = 15.80918629
ECCENTRICITY   = .000138
INCLINATION    = 97.2830
RA_OF_ASC_NODE = 103.5533
ARG_OF_PERICENTER = 94.9510
MEAN_ANOMALY   = 265.1915

EPHEMERIS_TYPE = 0
CLASSIFICATION_TYPE = U
NORAD_CAT_ID   = 67563
ELEMENT_SET_NO = 999
REV_AT_EPOCH   = 296
BSTAR          = .11E-2
MEAN_MOTION_DOT = .216904E-2
MEAN_MOTION_DDOT = 0

CCSDS_OMM_VERS = 2.0
CREATION_DATE  = 
ORIGINATOR     = 

OBJECT_NAME    = STARLINK-36593
OBJECT_ID      = 2026-016D
CENTER_NAME    = EARTH
REF_FRAME      = TEME
TIME_SYSTEM    = UTC
MEAN_ELEMENT_THEORY = SGP/SGP4

EPOCH          = 2026-02-13T07:38:55.165920
MEAN_MOTION    = 15.80888174
ECCENTRICITY   = .000137
INCLINATION    = 97.2831
RA_OF_ASC_NODE = 103.5551
ARG_OF_PERICENTER = 96.9892
MEAN_ANOMALY   = 263.1532

EPHEMERIS_TYPE = 0
CLASSIFICATION_TYPE = U
NORAD_CAT_ID   = 67564
ELEMENT_SET_NO = 999
REV_AT_EPOCH   = 296
BSTAR          = .78796E-3
MEAN_MOTION_DOT = .153989E-2
MEAN_MOTION_DDOT = 0

CCSDS_OMM_VERS = 2.0
CREATION_DATE  = 
ORIGINATOR     = 

OBJECT_NAME    = STARLINK-35725
OBJECT_ID      = 2026-016E
CENTER_NAME    = EARTH
REF_FRAME      = TEME
TIME_SYSTEM    = UTC
MEAN_ELEMENT_THEORY = SGP/SGP4

EPOCH          = 2026-02-13T12:00:02.998944
MEAN_MOTION    = 15.75120045
ECCENTRICITY   = .0001587
INCLINATION    = 97.2843
RA_OF_ASC_NODE = 103.7410
ARG_OF_PERICENTER = 87.2002
MEAN_ANOMALY   = 214.6830

EPHEMERIS_TYPE = 0
CLASSIFICATION_TYPE = U
NORAD_CAT_ID   = 67565
ELEMENT_SET_NO = 999
REV_AT_EPOCH   = 415
BSTAR          = .64217E-3
MEAN_MOTION_DOT = .9645E-3
MEAN_MOTION_DDOT = 0

CCSDS_OMM_VERS = 2.0
CREATION_DATE  = 
ORIGINATOR     = 

OBJECT_NAME    = STARLINK-36394
OBJECT_ID      = 2026-016F
CENTER_NAME    = EARTH
REF_FRAME      = TEME
TIME_SYSTEM    = UTC
MEAN_ELEMENT_THEORY = SGP/SGP4

EPOCH          = 2026-02-13T12:00:02.998944
MEAN_MOTION    = 15.75130435
ECCENTRICITY   = .0001237
INCLINATION    = 97.2850
RA_OF_ASC_NODE = 103.7337
ARG_OF_PERICENTER = 101.4181
MEAN_ANOMALY   = 190.4399

EPHEMERIS_TYPE = 0
CLASSIFICATION_TYPE = U
NORAD_CAT_ID   = 67566
ELEMENT_SET_NO = 999
REV_AT_EPOCH   = 425
BSTAR          = .84537E-3
MEAN_MOTION_DOT = .127532E-2
MEAN_MOTION_DDOT = 0

CCSDS_OMM_VERS = 2.0
CREATION_DATE  = 
ORIGINATOR     = 

OBJECT_NAME    = STARLINK-36352
OBJECT_ID      = 2026-016G
CENTER_NAME    = EARTH
REF_FRAME      = TEME
TIME_SYSTEM    = UTC
MEAN_ELEMENT_THEORY = SGP/SGP4

EPOCH          = 2026-02-13T07:33:38.786400
MEAN_MOTION    = 15.80859383
ECCENTRICITY   = .0002061
INCLINATION    = 97.2831
RA_OF_ASC_NODE = 103.5566
ARG_OF_PERICENTER = 90.9993
MEAN_ANOMALY   = 269.1511

EPHEMERIS_TYPE = 0
CLASSIFICATION_TYPE = U
NORAD_CAT_ID   = 67567
ELEMENT_SET_NO = 999
REV_AT_EPOCH   = 296
BSTAR          = .53746E-3
MEAN_MOTION_DOT = .104258E-2
MEAN_MOTION_DDOT = 0

CCSDS_OMM_VERS = 2.0
CREATION_DATE  = 
ORIGINATOR     = 

OBJECT_NAME    = STARLINK-36435
OBJECT_ID      = 2026-016H
CENTER_NAME    = EARTH
REF_FRAME      = TEME
TIME_SYSTEM    = UTC
MEAN_ELEMENT_THEORY = SGP/SGP4

EPOCH          = 2026-02-13T07:30:22.617792
MEAN_MOTION    = 15.80949243
ECCENTRICITY   = .0003945
INCLINATION    = 97.2822
RA_OF_ASC_NODE = 103.5619
ARG_OF_PERICENTER = 137.5973
MEAN_ANOMALY   = 222.5600

EPHEMERIS_TYPE = 0
CLASSIFICATION_TYPE = U
NORAD_CAT_ID   = 67568
ELEMENT_SET_NO = 999
REV_AT_EPOCH   = 296
BSTAR          = .48594E-3
MEAN_MOTION_DOT = .94566E-3
MEAN_MOTION_DDOT = 0

CCSDS_OMM_VERS = 2.0
CREATION_DATE  = 
ORIGINATOR     = 

OBJECT_NAME    = STARLINK-36575
OBJECT_ID      = 2026-016J
CENTER_NAME    = EARTH
REF_FRAME      = TEME
TIME_SYSTEM    = UTC
MEAN_ELEMENT_THEORY = SGP/SGP4

EPOCH          = 2026-02-13T07:28:39.496800
MEAN_MOTION    = 15.80920370
ECCENTRICITY   = .0001286
INCLINATION    = 97.2834
RA_OF_ASC_NODE = 103.5640
ARG_OF_PERICENTER = 95.9948
MEAN_ANOMALY   = 264.1467

EPHEMERIS_TYPE = 0
CLASSIFICATION_TYPE = U
NORAD_CAT_ID   = 67569
ELEMENT_SET_NO = 999
REV_AT_EPOCH   = 296
BSTAR          = .10605E-2
MEAN_MOTION_DOT = .20892E-2
MEAN_MOTION_DDOT = 0

CCSDS_OMM_VERS = 2.0
CREATION_DATE  = 
ORIGINATOR     = 

OBJECT_NAME    = STARLINK-36562
OBJECT_ID      = 2026-016K
CENTER_NAME    = EARTH
REF_FRAME      = TEME
TIME_SYSTEM    = UTC
MEAN_ELEMENT_THEORY = SGP/SGP4

EPOCH          = 2026-02-13T07:27:20.820960
MEAN_MOTION    = 15.80874014
ECCENTRICITY   = .0001329
INCLINATION    = 97.2839
RA_OF_ASC_NODE = 103.5650
ARG_OF_PERICENTER = 103.8316
MEAN_ANOMALY   = 256.3100

EPHEMERIS_TYPE = 0
CLASSIFICATION_TYPE = U
NORAD_CAT_ID   = 67570
ELEMENT_SET_NO = 999
REV_AT_EPOCH   = 296
BSTAR          = .64519E-3
MEAN_MOTION_DOT = .125569E-2
MEAN_MOTION_DDOT = 0

CCSDS_OMM_VERS = 2.0
CREATION_DATE  = 
ORIGINATOR     = 

OBJECT_NAME    = STARLINK-36578
OBJECT_ID      = 2026-016L
CENTER_NAME    = EARTH
REF_FRAME      = TEME
TIME_SYSTEM    = UTC
MEAN_ELEMENT_THEORY = SGP/SGP4

EPOCH          = 2026-02-13T10:48:58.695840
MEAN_MOTION    = 15.75211238
ECCENTRICITY   = .0001606
INCLINATION    = 97.2841
RA_OF_ASC_NODE = 103.6796
ARG_OF_PERICENTER = 50.8414
MEAN_ANOMALY   = 309.2994

EPHEMERIS_TYPE = 0
CLASSIFICATION_TYPE = U
NORAD_CAT_ID   = 67571
ELEMENT_SET_NO = 999
REV_AT_EPOCH   = 298
BSTAR          = .78325E-3
MEAN_MOTION_DOT = .118441E-2
MEAN_MOTION_DDOT = 0

CCSDS_OMM_VERS = 2.0
CREATION_DATE  = 
ORIGINATOR     = 

OBJECT_NAME    = STARLINK-36350
OBJECT_ID      = 2026-016M
CENTER_NAME    = EARTH
REF_FRAME      = TEME
TIME_SYSTEM    = UTC
MEAN_ELEMENT_THEORY = SGP/SGP4

EPOCH          = 2026-02-13T12:00:02.998944
MEAN_MOTION    = 15.75129601
ECCENTRICITY   = .0001336
INCLINATION    = 97.2848
RA_OF_ASC_NODE = 103.7478
ARG_OF_PERICENTER = 92.1335
MEAN_ANOMALY   = 231.7250

EPHEMERIS_TYPE = 0
CLASSIFICATION_TYPE = U
NORAD_CAT_ID   = 67572
ELEMENT_SET_NO = 999
REV_AT_EPOCH   = 405
BSTAR          = .79322E-3
MEAN_MOTION_DOT = .119541E-2
MEAN_MOTION_DDOT = 0

CCSDS_OMM_VERS = 2.0
CREATION_DATE  = 
ORIGINATOR     = 

OBJECT_NAME    = STARLINK-36588
OBJECT_ID      = 2026-016N
CENTER_NAME    = EARTH
REF_FRAME      = TEME
TIME_SYSTEM    = UTC
MEAN_ELEMENT_THEORY = SGP/SGP4

EPOCH          = 2026-02-13T12:00:02.998944
MEAN_MOTION    = 15.75123234
ECCENTRICITY   = .000127
INCLINATION    = 97.2846
RA_OF_ASC_NODE = 103.7444
ARG_OF_PERICENTER = 92.1010
MEAN_ANOMALY   = 219.7482

EPHEMERIS_TYPE = 0
CLASSIFICATION_TYPE = U
NORAD_CAT_ID   = 67573
ELEMENT_SET_NO = 999
REV_AT_EPOCH   = 421
BSTAR          = .10653E-2
MEAN_MOTION_DOT = .161333E-2
MEAN_MOTION_DDOT = 0

CCSDS_OMM_VERS = 2.0
CREATION_DATE  = 
ORIGINATOR     = 

OBJECT_NAME    = STARLINK-36594
OBJECT_ID      = 2026-016P
CENTER_NAME    = EARTH
REF_FRAME      = TEME
TIME_SYSTEM    = UTC
MEAN_ELEMENT_THEORY = SGP/SGP4

EPOCH          = 2026-02-13T10:22:52.300128
MEAN_MOTION    = 15.80902547
ECCENTRICITY   = .0001444
INCLINATION    = 97.2837
RA_OF_ASC_NODE = 103.7028
ARG_OF_PERICENTER = 122.5621
MEAN_ANOMALY   = 237.5787

EPHEMERIS_TYPE = 0
CLASSIFICATION_TYPE = U
NORAD_CAT_ID   = 67574
ELEMENT_SET_NO = 999
REV_AT_EPOCH   = 298
BSTAR          = .11728E-2
MEAN_MOTION_DOT = .231488E-2
MEAN_MOTION_DDOT = 0

