STARLINK-36403          
1 67563U 26016C   26044.31991655  .00216904  00000+0  11000-2 0  9992
2 67563  97.2830 103.5533 0001380  94.9510 265.1915 15.80918629  2963
STARLINK-36593          
1 67564U 26016D   26044.31869405  .00153989  00000+0  78796-3 0  9999
2 67564  97.2831 103.5551 0001370  96.9892 263.1532 15.80888174  2963
STARLINK-35725          
1 67565U 26016E   26044.50003471  .00096450  00000+0  64217-3 0  9996
2 67565  97.2843 103.7410 0001587  87.2002 214.6830 15.75120045  4154
STARLINK-36394          
1 67566U 26016F   26044.50003471  .00127532  00000+0  84537-3 0  9990
2 67566  97.2850 103.7337 0001237 101.4181 190.4399 15.75130435  4256
STARLINK-36352          
1 67567U 26016G   26044.31503225  .00104258  00000+0  53746-3 0  9990
2 67567  97.2831 103.5566 0002061  90.9993 269.1511 15.80859383  2969
STARLINK-36435          
1 67568U 26016H   26044.31276178  .00094566  00000+0  48594-3 0  9990
2 67568  97.2822 103.5619 0003945 137.5973 222.5600 15.80949243  2964
STARLINK-36575          
1 67569U 26016J   26044.31156825  .00208920  00000+0  10605-2 0  9999
2 67569  97.2834 103.5640 0001286  95.9948 264.1467 15.80920370  2960
STARLINK-36562          
1 67570U 26016K   26044.31065765  .00125569  00000+0  64519-3 0  9994
2 67570  97.2839 103.5650 0001329 103.8316 256.3100 15.80874014  2964
STARLINK-36578          
1 67571U 26016L   26044.45067935  .00118441  00000+0  78325-3 0  9992
2 67571  97.2841 103.6796 0001606  50.8414 309.2994 15.75211238  2986
STARLINK-36350          
1 67572U 26016M   26044.50003471  .00119541  00000+0  79322-3 0  9994
2 67572  97.2848 103.7478 0001336  92.1335 231.7250 15.75129601  4059
STARLINK-36588          
1 67573U 26016N   26044.50003471  .00161333  00000+0  10653-2 0  9992
2 67573  97.2846 103.7444 0001270  92.1010 219.7482 15.75123234  4215
STARLINK-36594          
1 67574U 26016P   26044.43254977  .00231488  00000+0  11728-2 0  9997
2 67574  97.2837 103.7028 0001444 122.5621 237.5787 15.80902547  2989
